0 PSLV DEB
1 27317U 01049KP  13281.31601205  .00014516  00000-0  83358-3 0  7138
2 27317 097.6683 239.5680 0029166 017.3386 342.8833 15.12265896640776
0 PSLV DEB
1 27317U 01049KP  13281.84534732  .00016709  00000-0  95830-3 0  7141
2 27317 097.6676 240.0996 0029016 015.3862 344.8243 15.12282229640851
0 PSLV DEB
1 27317U 01049KP  13283.69795714  .00023540  00000-0  13445-2 0  7158
2 27317 097.6681 241.9606 0028728 009.3727 350.8034 15.12362292641133
0 PSLV DEB
1 27317U 01049KP  13283.69796940  .00027365  00000-0  15630-2 0  7157
2 27317 097.6762 241.9633 0029941 006.7518 353.4620 15.12352624641138
0 PSLV DEB
1 27317U 01049KP  13284.69039014  .00021870  00000-0  12486-2 0  7162
2 27317 097.6674 242.9575 0028459 006.2351 353.9228 15.12399792641281
0 PSLV DEB
1 27317U 01049KP  13286.14591693  .00018982  00000-0  10832-2 0  7174
2 27317 097.6672 244.4201 0028180 001.2334 358.8961 15.12454086641500
0 PSLV DEB
1 27317U 01049KP  13287.40292204  .00019401  00000-0  11059-2 0  7180
2 27317 097.6669 245.6826 0027916 356.8386 003.2663 15.12495681641690
0 PSLV DEB
1 27317U 01049KP  13288.13064264  .00031024  00000-0  17616-2 0  7195
2 27317 097.6672 246.4143 0027938 354.2532 005.8373 15.12531251641807
0 PSLV DEB
1 27317U 01049KP  13289.12296171  .00027425  00000-0  15568-2 0  7205
2 27317 097.6673 247.4105 0027574 350.6275 009.4437 15.12577594641954
0 PSLV DEB
1 27317U 01049KP  13290.11525365  .00025986  00000-0  14741-2 0  7219
2 27317 097.6682 248.4073 0027465 347.2149 012.8381 15.12616828642108
0 PSLV DEB
1 27317U 01049KP  13291.63671235  .00024114  00000-0  13663-2 0  7220
2 27317 097.6684 249.9365 0027089 342.0161 018.0108 15.12684456642331
0 PSLV DEB
1 27317U 01049KP  13292.82737365  .00023270  00000-0  13170-2 0  7235
2 27317 097.6688 251.1333 0026821 338.1498 021.8586 15.12737560642514
0 PSLV DEB
1 27317U 01049KP  13294.67943626  .00026423  00000-0  14917-2 0  7243
2 27317 097.6702 252.9944 0026544 331.3615 028.6156 15.12806645642795
